{
  "type": "FeatureCollection",
  "features": [
    {
      "type": "Feature",
      "properties": {
        "norad_id": 34036,
        "name": "COSMOS 2251 DEB",
        "group": "cosmos-2251-debris",
        "lat": 18.18031383539089,
        "lon": 137.34743058567022,
        "alt_km": 586.580210576838,
        "timestamp": "2025-12-21T07:34:34.908221+00:00",
        "meta_object_name": "COSMOS 2251 DEB",
        "meta_object_id": "1993-036HX",
        "meta_epoch": "2025-12-20T18:38:54.070080",
        "meta_mean_motion": 14.9554893,
        "meta_eccentricity": 0.00108379,
        "meta_inclination": 74.0192,
        "meta_ra_of_asc_node": 133.035,
        "meta_arg_of_pericenter": 162.4424,
        "meta_mean_anomaly": 197.7137,
        "meta_ephemeris_type": 0,
        "meta_classification_type": "U",
        "meta_norad_cat_id": 34036,
        "meta_element_set_no": 999,
        "meta_rev_at_epoch": 88690,
        "meta_bstar": 0.0022969867,
        "meta_mean_motion_dot": 0.00025561,
        "meta_mean_motion_ddot": 0,
        "tle_line1": "1 34036U 93036HX  25354.77701470  .00025561  00000+0  22970-2 0  9999",
        "tle_line2": "2 34036  74.0192 133.0350 0010837 162.4424 197.7137 14.95548930886902"
      },
      "geometry": {
        "type": "Point",
        "coordinates": [
          137.34743058567022,
          18.18031383539089
        ]
      }
    },
    {
      "type": "Feature",
      "properties": {
        "norad_id": 34037,
        "name": "COSMOS 2251 DEB",
        "group": "cosmos-2251-debris",
        "lat": 7.632450281711861,
        "lon": 36.94292852376123,
        "alt_km": 767.3174081529505,
        "timestamp": "2025-12-21T07:34:34.908230+00:00",
        "meta_object_name": "COSMOS 2251 DEB",
        "meta_object_id": "1993-036HY",
        "meta_epoch": "2025-12-20T19:49:29.803296",
        "meta_mean_motion": 14.34683641,
        "meta_eccentricity": 0.00518229,
        "meta_inclination": 74.0512,
        "meta_ra_of_asc_node": 35.6426,
        "meta_arg_of_pericenter": 83.1301,
        "meta_mean_anomaly": 277.5744,
        "meta_ephemeris_type": 0,
        "meta_classification_type": "U",
        "meta_norad_cat_id": 34037,
        "meta_element_set_no": 999,
        "meta_rev_at_epoch": 87833,
        "meta_bstar": 0.00029102631,
        "meta_mean_motion_dot": 8.11e-06,
        "meta_mean_motion_ddot": 0,
        "tle_line1": "1 34037U 93036HY  25354.82603939  .00000811  00000+0  29103-3 0  9994",
        "tle_line2": "2 34037  74.0512  35.6426 0051822  83.1301 277.5744 14.34683641878333"
      },
      "geometry": {
        "type": "Point",
        "coordinates": [
          36.94292852376123,
          7.632450281711861
        ]
      }
    },
    {
      "type": "Feature",
      "properties": {
        "norad_id": 34040,
        "name": "COSMOS 2251 DEB",
        "group": "cosmos-2251-debris",
        "lat": 13.761281568116518,
        "lon": 55.734035189370864,
        "alt_km": 756.878247118234,
        "timestamp": "2025-12-21T07:34:34.908239+00:00",
        "meta_object_name": "COSMOS 2251 DEB",
        "meta_object_id": "1993-036JB",
        "meta_epoch": "2025-12-20T12:12:41.867424",
        "meta_mean_motion": 13.68385497,
        "meta_eccentricity": 0.0343303,
        "meta_inclination": 73.9557,
        "meta_ra_of_asc_node": 53.0256,
        "meta_arg_of_pericenter": 4.8123,
        "meta_mean_anomaly": 355.6151,
        "meta_ephemeris_type": 0,
        "meta_classification_type": "U",
        "meta_norad_cat_id": 34040,
        "meta_element_set_no": 999,
        "meta_rev_at_epoch": 83706,
        "meta_bstar": 0.00048506,
        "meta_mean_motion_dot": 6.03e-06,
        "meta_mean_motion_ddot": 0,
        "tle_line1": "1 34040U 93036JB  25354.50881791  .00000603  00000+0  48506-3 0  9994",
        "tle_line2": "2 34040  73.9557  53.0256 0343303   4.8123 355.6151 13.68385497837068"
      },
      "geometry": {
        "type": "Point",
        "coordinates": [
          55.734035189370864,
          13.761281568116518
        ]
      }
    },
    {
      "type": "Feature",
      "properties": {
        "norad_id": 34045,
        "name": "COSMOS 2251 DEB",
        "group": "cosmos-2251-debris",
        "lat": 33.07753597110169,
        "lon": -54.11721213612752,
        "alt_km": 758.0979660496696,
        "timestamp": "2025-12-21T07:34:34.908248+00:00",
        "meta_object_name": "COSMOS 2251 DEB",
        "meta_object_id": "1993-036JG",
        "meta_epoch": "2025-12-20T21:37:53.851872",
        "meta_mean_motion": 14.34072981,
        "meta_eccentricity": 0.00260019,
        "meta_inclination": 74.0395,
        "meta_ra_of_asc_node": 295.8978,
        "meta_arg_of_pericenter": 17.117,
        "meta_mean_anomaly": 39.1043,
        "meta_ephemeris_type": 0,
        "meta_classification_type": "U",
        "meta_norad_cat_id": 34045,
        "meta_element_set_no": 999,
        "meta_rev_at_epoch": 88150,
        "meta_bstar": 6.9310802e-05,
        "meta_mean_motion_dot": 1.68e-06,
        "meta_mean_motion_ddot": 0,
        "tle_line1": "1 34045U 93036JG  25354.90131773  .00000168  00000+0  69311-4 0  9995",
        "tle_line2": "2 34045  74.0395 295.8978 0026001  17.1170  39.1043 14.34072981881501"
      },
      "geometry": {
        "type": "Point",
        "coordinates": [
          -54.11721213612752,
          33.07753597110169
        ]
      }
    },
    {
      "type": "Feature",
      "properties": {
        "norad_id": 34046,
        "name": "COSMOS 2251 DEB",
        "group": "cosmos-2251-debris",
        "lat": 44.235759742626584,
        "lon": 10.640861660542756,
        "alt_km": 686.3655615894131,
        "timestamp": "2025-12-21T07:34:34.908257+00:00",
        "meta_object_name": "COSMOS 2251 DEB",
        "meta_object_id": "1993-036JH",
        "meta_epoch": "2025-12-20T01:44:37.329792",
        "meta_mean_motion": 14.46526924,
        "meta_eccentricity": 0.00744564,
        "meta_inclination": 74.0389,
        "meta_ra_of_asc_node": 356.7805,
        "meta_arg_of_pericenter": 78.006,
        "meta_mean_anomaly": 338.5486,
        "meta_ephemeris_type": 0,
        "meta_classification_type": "U",
        "meta_norad_cat_id": 34046,
        "meta_element_set_no": 999,
        "meta_rev_at_epoch": 87932,
        "meta_bstar": 0.00078666467,
        "meta_mean_motion_dot": 2.906e-05,
        "meta_mean_motion_ddot": 0,
        "tle_line1": "1 34046U 93036JH  25354.07265428  .00002906  00000+0  78666-3 0  9993",
        "tle_line2": "2 34046  74.0389 356.7805 0074456  78.0060 338.5486 14.46526924879320"
      },
      "geometry": {
        "type": "Point",
        "coordinates": [
          10.640861660542756,
          44.235759742626584
        ]
      }
    },
    {
      "type": "Feature",
      "properties": {
        "norad_id": 34050,
        "name": "COSMOS 2251 DEB",
        "group": "cosmos-2251-debris",
        "lat": 6.4029297910795755,
        "lon": 173.50700758726828,
        "alt_km": 973.9380107720426,
        "timestamp": "2025-12-21T07:34:34.908266+00:00",
        "meta_object_name": "COSMOS 2251 DEB",
        "meta_object_id": "1993-036JM",
        "meta_epoch": "2025-12-20T17:32:29.256288",
        "meta_mean_motion": 13.96197358,
        "meta_eccentricity": 0.02146949,
        "meta_inclination": 74.0882,
        "meta_ra_of_asc_node": 356.3442,
        "meta_arg_of_pericenter": 58.6067,
        "meta_mean_anomaly": 54.2106,
        "meta_ephemeris_type": 0,
        "meta_classification_type": "U",
        "meta_norad_cat_id": 34050,
        "meta_element_set_no": 999,
        "meta_rev_at_epoch": 85543,
        "meta_bstar": 0.0005258601,
        "meta_mean_motion_dot": 8.56e-06,
        "meta_mean_motion_ddot": 0,
        "tle_line1": "1 34050U 93036JM  25354.73089417  .00000856  00000+0  52586-3 0  9998",
        "tle_line2": "2 34050  74.0882 356.3442 0214694  58.6067  54.2106 13.96197358855433"
      },
      "geometry": {
        "type": "Point",
        "coordinates": [
          173.50700758726828,
          6.4029297910795755
        ]
      }
    },
    {
      "type": "Feature",
      "properties": {
        "norad_id": 34053,
        "name": "COSMOS 2251 DEB",
        "group": "cosmos-2251-debris",
        "lat": 40.204329820778156,
        "lon": 34.17006504485235,
        "alt_km": 1229.898632647727,
        "timestamp": "2025-12-21T07:34:34.908275+00:00",
        "meta_object_name": "COSMOS 2251 DEB",
        "meta_object_id": "1993-036JQ",
        "meta_epoch": "2025-12-20T16:41:14.361504",
        "meta_mean_motion": 13.49172922,
        "meta_eccentricity": 0.04226751,
        "meta_inclination": 73.8433,
        "meta_ra_of_asc_node": 229.3517,
        "meta_arg_of_pericenter": 16.5958,
        "meta_mean_anomaly": 344.8501,
        "meta_ephemeris_type": 0,
        "meta_classification_type": "U",
        "meta_norad_cat_id": 34053,
        "meta_element_set_no": 999,
        "meta_rev_at_epoch": 82791,
        "meta_bstar": 0.00050236834,
        "meta_mean_motion_dot": 5.27e-06,
        "meta_mean_motion_ddot": 0,
        "tle_line1": "1 34053U 93036JQ  25354.69530511  .00000527  00000+0  50237-3 0  9998",
        "tle_line2": "2 34053  73.8433 229.3517 0422675  16.5958 344.8501 13.49172922827916"
      },
      "geometry": {
        "type": "Point",
        "coordinates": [
          34.17006504485235,
          40.204329820778156
        ]
      }
    }
  ]
}